{
  "57891": {
    "noradId": "57891",
    "tle": [
      "1 57891C 23146A   25276.09840278  .00004026  00000+0  29700-3 0  2766",
      "2 57891  43.0018  89.9124 0001101 254.6458 240.4989 15.02544567    14"
    ]
  },
  "57892": {
    "noradId": "57892",
    "tle": [
      "1 57892C 23146B   25276.09909722  .00000186  00000+0  13749-4 0  2767",
      "2 57892  43.0016  89.8633 0001318 265.6487 251.4027 15.02546393    15"
    ]
  },
  "57893": {
    "noradId": "57893",
    "tle": [
      "1 57893C 23146C   25276.09840278  .00001747  00000+0  12887-3 0  2763",
      "2 57893  43.0023  89.5127 0001491 265.6285  13.9320 15.02538851    14"
    ]
  },
  "57894": {
    "noradId": "57894",
    "tle": [
      "1 57894C 23146D   25276.09840278  .00005171  00000+0  38140-3 0  2769",
      "2 57894  43.0021  89.7859 0001332 266.8037 282.4310 15.02543417    15"
    ]
  },
  "57895": {
    "noradId": "57895",
    "tle": [
      "1 57895C 23146E   25276.10534722 -.00000358  00000+0 -26375-4 0  2768",
      "2 57895  43.0022  89.7912 0001370 264.9628 303.9833 15.02542845    17"
    ]
  },
  "57896": {
    "noradId": "57896",
    "tle": [
      "1 57896C 23146F   25276.09979167  .00001754  00000+0  12933-3 0  2766",
      "2 57896  43.0021  89.7340 0001258 271.2597 303.6457 15.02548570    13"
    ]
  },
  "57897": {
    "noradId": "57897",
    "tle": [
      "1 57897C 23146G   25276.10187500 -.00015827  00000+0 -11689-2 0  2765",
      "2 57897  43.0021  89.6522 0001610 255.8835   0.5190 15.02517429    16"
    ]
  },
  "57898": {
    "noradId": "57898",
    "tle": [
      "1 57898C 23146H   25276.10187500 -.00005001  00000+0 -36895-3 0  2766",
      "2 57898  43.0022  89.6375 0001387 259.5688   2.6712 15.02545656    18"
    ]
  },
  "57899": {
    "noradId": "57899",
    "tle": [
      "1 57899C 23146J   25276.10256944 -.00045654  00000+0 -33695-2 0  2768",
      "2 57899  43.0020  89.5907 0001449 264.9734  19.1279 15.02571442    11"
    ]
  },
  "57900": {
    "noradId": "57900",
    "tle": [
      "1 57900C 23146K   25276.09562500 -.00019259  00000+0 -14211-2 0  2762",
      "2 57900  43.0021  89.4304 0001475 260.1954  70.4207 15.02553720    16"
    ]
  },
  "57901": {
    "noradId": "57901",
    "tle": [
      "1 57901C 23146L   25276.10118056  .00003886  00000+0  28683-3 0  2764",
      "2 57901  43.0023  89.1633 0001299 262.8965 193.9599 15.02518454    16"
    ]
  },
  "57902": {
    "noradId": "57902",
    "tle": [
      "1 57902C 23146M   25276.09909722  .00004098  00000+0  30249-3 0  2768",
      "2 57902  43.0022  89.5229 0001718 258.7848  42.6136 15.02516348    18"
    ]
  },
  "57903": {
    "noradId": "57903",
    "tle": [
      "1 57903C 23146N   25276.07895833  .00004879  00000+0  35985-3 0  2763",
      "2 57903  43.0021  89.2403 0001551 274.3932  80.1232 15.02550068    13"
    ]
  },
  "57904": {
    "noradId": "57904",
    "tle": [
      "1 57904C 23146P   25276.09909722  .00004116  00000+0  30352-3 0  2766",
      "2 57904  43.0020  89.4807 0001570 269.7436  49.4826 15.02555561    11"
    ]
  },
  "57905": {
    "noradId": "57905",
    "tle": [
      "1 57905C 23146Q   25276.09701389  .00002292  00000+0  16910-3 0  2763",
      "2 57905  43.0019  89.0979 0001264 255.8432 214.5180 15.02535092    13"
    ]
  },
  "57906": {
    "noradId": "57906",
    "tle": [
      "1 57906C 23146R   25276.09909722  .00002260  00000+0  16669-3 0  2761",
      "2 57906  43.0021  89.4347 0001363 267.3769  70.0025 15.02542186    16"
    ]
  },
  "57907": {
    "noradId": "57907",
    "tle": [
      "1 57907C 23146S   25276.09701389 -.00013053  00000+0 -96317-3 0  2763",
      "2 57907  43.0023  89.4054 0001511 259.4953  84.6555 15.02546860    18"
    ]
  },
  "57908": {
    "noradId": "57908",
    "tle": [
      "1 57908C 23146T   25276.10673611 -.00007493  00000+0 -55273-3 0  2769",
      "2 57908  43.0020  89.2640 0001199 264.2641 168.5554 15.02551654    13"
    ]
  },
  "57909": {
    "noradId": "57909",
    "tle": [
      "1 57909C 23146U   25276.09979167  .00001888  00000+0  13932-3 0  2769",
      "2 57909  43.0024  89.3468 0001379 266.9170 110.2949 15.02537916    10"
    ]
  },
  "57910": {
    "noradId": "57910",
    "tle": [
      "1 57910C 23146V   25276.09701389 -.00014146  00000+0 -10437-2 0  2769",
      "2 57910  43.0019  89.2734 0001513 261.2921 136.9331 15.02551647    10"
    ]
  },
  "57911": {
    "noradId": "57911",
    "tle": [
      "1 57911C 23146W   25276.10256944 -.00020518  00000+0 -15139-2 0  2768",
      "2 57911  43.0016  89.0503 0001547 260.5547 245.9095 15.02555343    18"
    ]
  },
  "57912": {
    "noradId": "57912",
    "tle": [
      "1 57912C 23146X   25276.09840278 -.00006579  00000+0 -48547-3 0  2767",
      "2 57912  43.0022  89.2246 0001447 260.7960 162.9995 15.02541198    12"
    ]
  },
  "57913": {
    "noradId": "57913",
    "tle": [
      "1 57913C 23147A   25276.09909722 -.00013281  00000+0 -97986-3 0  2768",
      "2 57913  43.0022 102.7649 0001617 264.8937 235.6407 15.02550932    11"
    ]
  },
  "57914": {
    "noradId": "57914",
    "tle": [
      "1 57914C 23147B   25276.10118056 -.00043041  00000+0 -15586-2 0  2765",
      "2 57914  43.0035 349.6062 0001674 271.3862 246.5415 15.27627505    18"
    ]
  },
  "57915": {
    "noradId": "57915",
    "tle": [
      "1 57915C 23147C   25276.10118056  .00003733  00000+0  27545-3 0  2767",
      "2 57915  43.0022 102.6668 0001434 264.5685 283.3175 15.02532002    17"
    ]
  },
  "57917": {
    "noradId": "57917",
    "tle": [
      "1 57917C 23147E   25276.10256944  .00004045  00000+0  29858-3 0  2764",
      "2 57917  43.0024 102.6165 0001475 271.3960 302.0314 15.02512756    18"
    ]
  },
  "57918": {
    "noradId": "57918",
    "tle": [
      "1 57918C 23147F   25276.09909722  .00065531  00000+0  23743-2 0  2765",
      "2 57918  43.0040 350.2074 0001350 253.7231 351.0901 15.27503529    15"
    ]
  },
  "57919": {
    "noradId": "57919",
    "tle": [
      "1 57919C 23147G   25276.09979167  .00004382  00000+0  32337-3 0  2763",
      "2 57919  43.0022 102.5452 0001325 276.8006 317.6695 15.02527048    15"
    ]
  },
  "57920": {
    "noradId": "57920",
    "tle": [
      "1 57920C 23147H   25276.10118056 -.00018632  00000+0 -13748-2 0  2768",
      "2 57920  43.0022 102.4946 0001386 262.3892 357.6267 15.02555413    10"
    ]
  },
  "57921": {
    "noradId": "57921",
    "tle": [
      "1 57921C 23147J   25276.09701389 -.00015539  00000+0 -11465-2 0  2761",
      "2 57921  43.0016 102.4709 0001420 263.7793 351.7030 15.02552903    19"
    ]
  },
  "57923": {
    "noradId": "57923",
    "tle": [
      "1 57923C 23147L   25276.09979167  .00040328  00000+0  29766-2 0  2769",
      "2 57923  43.0019 102.4140 0001386 265.6207  22.8841 15.02482754    17"
    ]
  },
  "57924": {
    "noradId": "57924",
    "tle": [
      "1 57924C 23147M   25276.09770833  .00005274  00000+0  38937-3 0  2761",
      "2 57924  43.0018 102.1508 0001568 273.6198 111.8570 15.02506349    17"
    ]
  },
  "57925": {
    "noradId": "57925",
    "tle": [
      "1 57925C 23147N   25276.09979167 -.00062293  00000+0 -45973-2 0  2766",
      "2 57925  43.0015 102.3682 0001650 259.6079  47.0315 15.02589599    19"
    ]
  },
  "57926": {
    "noradId": "57926",
    "tle": [
      "1 57926C 23147P   25276.09840278  .00005072  00000+0  37422-3 0  2768",
      "2 57926  43.0020 102.3414 0001371 267.3977  49.6943 15.02531665    18"
    ]
  },
  "57927": {
    "noradId": "57927",
    "tle": [
      "1 57927C 23147Q   25276.10256944  .00194430  00000+0  59399-2 0  2765",
      "2 57927  43.0030 330.5505 0004606  51.1328 125.4439 15.32860653    17"
    ]
  },
  "57928": {
    "noradId": "57928",
    "tle": [
      "1 57928C 23147R   25276.10256944  .00003372  00000+0  24872-3 0  2769",
      "2 57928  43.0018 102.2263 0001428 260.5564 115.0991 15.02543073    15"
    ]
  },
  "57930": {
    "noradId": "57930",
    "tle": [
      "1 57930C 23147T   25276.11020833  .00097475  00000+0  51070-2 0  2765",
      "2 57930  42.9981  78.6660 0012206 272.8105 167.2163 15.14859816    13"
    ]
  },
  "57931": {
    "noradId": "57931",
    "tle": [
      "1 57931C 23147U   25276.09979167  .00004346  00000+0  32054-3 0  2763",
      "2 57931  43.0022 102.2002 0001296 267.7403 110.9175 15.02549214    10"
    ]
  },
  "57932": {
    "noradId": "57932",
    "tle": [
      "1 57932C 23147V   25276.09770833  .00004508  00000+0  33259-3 0  2761",
      "2 57932  43.0020 101.9938 0001331 266.0770 191.4788 15.02537106    13"
    ]
  },
  "57933": {
    "noradId": "57933",
    "tle": [
      "1 57933C 23147W   25276.09979167  .00003009  00000+0  22198-3 0  2768",
      "2 57933  43.0025 102.1175 0001271 267.3943 147.3698 15.02537607    10"
    ]
  },
  "57934": {
    "noradId": "57934",
    "tle": [
      "1 57934C 23147X   25276.10604167  .03382700  00000+0  10201-1 0  2767",
      "2 57934  42.9756  26.7817 0033914 354.3744 335.3462 15.86998213    13"
    ]
  },
  "57935": {
    "noradId": "57935",
    "tle": [
      "1 57935C 23148A   25276.09840278  .00017040  00000+0  57454-3 0  2764",
      "2 57935  53.1595  36.1986 0001383  84.3512 349.8748 15.30161842    15"
    ]
  },
  "57936": {
    "noradId": "57936",
    "tle": [
      "1 57936C 23148B   25276.09840278  .00016067  00000+0  54165-3 0  2769",
      "2 57936  53.1595  36.4292 0001288  82.1817 189.2536 15.30166859    11"
    ]
  },
  "57937": {
    "noradId": "57937",
    "tle": [
      "1 57937C 23148C   25276.09562500  .00005578  00000+0  18802-3 0  2762",
      "2 57937  53.1588  36.2068 0001262  92.2491 309.2339 15.30183366    12"
    ]
  },
  "57938": {
    "noradId": "57938",
    "tle": [
      "1 57938C 23148D   25276.09770833  .00029803  00000+0  10047-2 0  2762",
      "2 57938  53.1586  26.2216 0001326  88.8810  33.2993 15.30154210    18"
    ]
  }
}